start=new Date('2023-04-28T00:00:00.000Z').valueOf();
sats=[{"MEAN_MOTION":"15.69940018","CENTER_NAME":"EARTH","PERIOD":"91.723","EPOCH":"2023-04-27T16:14:16.624320","ARG_OF_PERICENTER":"246.7178","APOAPSIS":"360.956","OBJECT_ID":"2023-028AA","TLE_LINE1":"1 55765U 23028AA  23117.67658130 -.00001007  00000-0 -66082-5 0  9990","REF_FRAME":"TEME","TLE_LINE2":"2 55765  70.0015   0.7995 0002798 246.7178 113.3724 15.69940018  9287","OBJECT_NAME":"STARLINK-5595","FILE":"3894770","MEAN_MOTION_DOT":"-0.00001007","COUNTRY_CODE":"US","MEAN_ELEMENT_THEORY":"SGP4","EPHEMERIS_TYPE":"0","ECCENTRICITY":"0.00027980","NORAD_CAT_ID":"55765","BSTAR":"-0.00000660820000","ELEMENT_SET_NO":"999","PERIAPSIS":"357.186","RCS_SIZE":"LARGE","MEAN_MOTION_DDOT":"0.0000000000000","GP_ID":"230841157","DECAY_DATE":null,"RA_OF_ASC_NODE":"0.7995","SEMIMAJOR_AXIS":"6737.206","TIME_SYSTEM":"UTC","INCLINATION":"70.0015","SITE":"AFWTR","CLASSIFICATION_TYPE":"U","LAUNCH_DATE":"2023-03-03","OBJECT_TYPE":"PAYLOAD","MEAN_ANOMALY":"113.3724","REV_AT_EPOCH":"928"},{"OBJECT_ID":"2023-028AB","TLE_LINE2":"2 55766  70.0005   0.7970 0002560 258.6191 101.4717 15.69925492  9283","REF_FRAME":"TEME","TLE_LINE1":"1 55766U 23028AB  23117.67596424  .00000384  00000-0  49587-5 0  9994","CENTER_NAME":"EARTH","MEAN_MOTION":"15.69925492","APOAPSIS":"360.837","PERIOD":"91.724","EPOCH":"2023-04-27T16:13:23.310336","ARG_OF_PERICENTER":"258.6191","MEAN_ELEMENT_THEORY":"SGP4","BSTAR":"0.00000495870000","ELEMENT_SET_NO":"999","ECCENTRICITY":"0.00025600","NORAD_CAT_ID":"55766","EPHEMERIS_TYPE":"0","OBJECT_NAME":"STARLINK-5599","COUNTRY_CODE":"US","MEAN_MOTION_DOT":"0.00000384","FILE":"3894770","RA_OF_ASC_NODE":"0.7970","SEMIMAJOR_AXIS":"6737.247","MEAN_MOTION_DDOT":"0.0000000000000","RCS_SIZE":"LARGE","PERIAPSIS":"357.387","DECAY_DATE":null,"GP_ID":"230841364","LAUNCH_DATE":"2023-03-03","MEAN_ANOMALY":"101.4717","REV_AT_EPOCH":"928","OBJECT_TYPE":"PAYLOAD","INCLINATION":"70.0005","TIME_SYSTEM":"UTC","CLASSIFICATION_TYPE":"U","SITE":"AFWTR"},{"TIME_SYSTEM":"UTC","INCLINATION":"69.9974","CLASSIFICATION_TYPE":"U","SITE":"AFWTR","LAUNCH_DATE":"2023-03-03","OBJECT_TYPE":"PAYLOAD","MEAN_ANOMALY":"92.2541","REV_AT_EPOCH":"920","RCS_SIZE":"LARGE","PERIAPSIS":"356.899","MEAN_MOTION_DDOT":"0.0000000000000","DECAY_DATE":null,"GP_ID":"230838882","RA_OF_ASC_NODE":"2.4114","SEMIMAJOR_AXIS":"6737.224","OBJECT_NAME":"STARLINK-5606","MEAN_MOTION_DOT":"0.00009613","FILE":"3894751","COUNTRY_CODE":"US","MEAN_ELEMENT_THEORY":"SGP4","EPHEMERIS_TYPE":"0","BSTAR":"0.00008159300000","ELEMENT_SET_NO":"999","ECCENTRICITY":"0.00032520","NORAD_CAT_ID":"55767","MEAN_MOTION":"15.69933422","CENTER_NAME":"EARTH","ARG_OF_PERICENTER":"267.8282","PERIOD":"91.724","EPOCH":"2023-04-27T02:28:38.290944","APOAPSIS":"361.280","OBJECT_ID":"2023-028AC","TLE_LINE1":"1 55767U 23028AC  23117.10322096  .00009613  00000-0  81593-4 0  9991","TLE_LINE2":"2 55767  69.9974   2.4114 0003252 267.8282  92.2541 15.69933422  9203","REF_FRAME":"TEME"},{"REV_AT_EPOCH":"920","MEAN_ANOMALY":"102.2263","OBJECT_TYPE":"PAYLOAD","LAUNCH_DATE":"2023-03-03","CLASSIFICATION_TYPE":"U","SITE":"AFWTR","TIME_SYSTEM":"UTC","INCLINATION":"70.0010","SEMIMAJOR_AXIS":"6737.223","RA_OF_ASC_NODE":"2.4077","DECAY_DATE":null,"GP_ID":"230839632","MEAN_MOTION_DDOT":"0.0000000000000","RCS_SIZE":"LARGE","PERIAPSIS":"355.914","ELEMENT_SET_NO":"999","BSTAR":"0.00007954600000","NORAD_CAT_ID":"55768","ECCENTRICITY":"0.00047120","EPHEMERIS_TYPE":"0","MEAN_ELEMENT_THEORY":"SGP4","COUNTRY_CODE":"US","MEAN_MOTION_DOT":"0.00009369","FILE":"3894751","OBJECT_NAME":"STARLINK-5583","TLE_LINE2":"2 55768  70.0010   2.4077 0004712 257.8405 102.2263 15.69933856  9208","REF_FRAME":"TEME","TLE_LINE1":"1 55768U 23028AD  23117.10282075  .00009369  00000-0  79546-4 0  9997","OBJECT_ID":"2023-028AD","APOAPSIS":"362.263","PERIOD":"91.724","ARG_OF_PERICENTER":"257.8405","EPOCH":"2023-04-27T02:28:03.712800","CENTER_NAME":"EARTH","MEAN_MOTION":"15.69933856"},{"CENTER_NAME":"EARTH","MEAN_MOTION":"15.69917187","APOAPSIS":"360.935","ARG_OF_PERICENTER":"259.4365","PERIOD":"91.725","EPOCH":"2023-04-27T02:27:54.837792","OBJECT_ID":"2023-028AE","TLE_LINE2":"2 55769  69.9971   2.4111 0002670 259.4365 100.6530 15.69917187  9203","REF_FRAME":"TEME","TLE_LINE1":"1 55769U 23028AE  23117.10271803  .00005913  00000-0  50926-4 0  9997","OBJECT_NAME":"STARLINK-5584","COUNTRY_CODE":"US","MEAN_MOTION_DOT":"0.00005913","FILE":"3894751","MEAN_ELEMENT_THEORY":"SGP4","ELEMENT_SET_NO":"999","BSTAR":"0.00005092600000","NORAD_CAT_ID":"55769","ECCENTRICITY":"0.00026700","EPHEMERIS_TYPE":"0","MEAN_MOTION_DDOT":"0.0000000000000","RCS_SIZE":"LARGE","PERIAPSIS":"357.337","DECAY_DATE":null,"GP_ID":"230839884","RA_OF_ASC_NODE":"2.4111","SEMIMAJOR_AXIS":"6737.271","TIME_SYSTEM":"UTC","INCLINATION":"69.9971","CLASSIFICATION_TYPE":"U","SITE":"AFWTR","LAUNCH_DATE":"2023-03-03","MEAN_ANOMALY":"100.6530","REV_AT_EPOCH":"920","OBJECT_TYPE":"PAYLOAD"},{"BSTAR":"0.00009599700000","ELEMENT_SET_NO":"999","ECCENTRICITY":"0.00043670","NORAD_CAT_ID":"55770","EPHEMERIS_TYPE":"0","MEAN_ELEMENT_THEORY":"SGP4","COUNTRY_CODE":"US","MEAN_MOTION_DOT":"0.00011358","FILE":"3894751","OBJECT_NAME":"STARLINK-5557","TLE_LINE2":"2 55770  70.0011   2.4058 0004367 252.0713 108.0007 15.69945230  9205","REF_FRAME":"TEME","TLE_LINE1":"1 55770U 23028AF  23117.10260396  .00011358  00000-0  95997-4 0  9991","OBJECT_ID":"2023-028AF","APOAPSIS":"361.998","EPOCH":"2023-04-27T02:27:44.982144","PERIOD":"91.723","ARG_OF_PERICENTER":"252.0713","CENTER_NAME":"EARTH","MEAN_MOTION":"15.69945230","REV_AT_EPOCH":"920","MEAN_ANOMALY":"108.0007","OBJECT_TYPE":"PAYLOAD","LAUNCH_DATE":"2023-03-03","CLASSIFICATION_TYPE":"U","SITE":"AFWTR","TIME_SYSTEM":"UTC","INCLINATION":"70.0011","SEMIMAJOR_AXIS":"6737.191","RA_OF_ASC_NODE":"2.4058","DECAY_DATE":null,"GP_ID":"230840632","MEAN_MOTION_DDOT":"0.0000000000000","RCS_SIZE":"LARGE","PERIAPSIS":"356.114"},{"MEAN_MOTION":"15.69929022","CENTER_NAME":"EARTH","PERIOD":"91.724","EPOCH":"2023-04-27T16:13:04.462176","ARG_OF_PERICENTER":"266.4584","APOAPSIS":"361.279","OBJECT_ID":"2023-028AG","TLE_LINE1":"1 55771U 23028AG  23117.67574609 -.00005772  00000-0 -46258-4 0  9990","REF_FRAME":"TEME","TLE_LINE2":"2 55771  70.0038   0.7941 0003231 266.4584  93.6243 15.69929022  9281","OBJECT_NAME":"STARLINK-5591","FILE":"3894771","MEAN_MOTION_DOT":"-0.00005772","COUNTRY_CODE":"US","MEAN_ELEMENT_THEORY":"SGP4","EPHEMERIS_TYPE":"0","ECCENTRICITY":"0.00032310","NORAD_CAT_ID":"55771","BSTAR":"-0.00004625800000","ELEMENT_SET_NO":"999","PERIAPSIS":"356.925","RCS_SIZE":"LARGE","MEAN_MOTION_DDOT":"0.0000000000000","GP_ID":"230841393","DECAY_DATE":null,"RA_OF_ASC_NODE":"0.7941","SEMIMAJOR_AXIS":"6737.237","TIME_SYSTEM":"UTC","INCLINATION":"70.0038","SITE":"AFWTR","CLASSIFICATION_TYPE":"U","LAUNCH_DATE":"2023-03-03","OBJECT_TYPE":"PAYLOAD","REV_AT_EPOCH":"928","MEAN_ANOMALY":"93.6243"},{"APOAPSIS":"361.361","PERIOD":"91.725","ARG_OF_PERICENTER":"263.4503","EPOCH":"2023-04-27T03:58:27.191136","CENTER_NAME":"EARTH","MEAN_MOTION":"15.69911847","TLE_LINE2":"2 55772  69.9990   2.2260 0003280 263.4503  96.6319 15.69911847  9215","REF_FRAME":"TEME","TLE_LINE1":"1 55772U 23028AH  23117.16559249  .00006026  00000-0  51878-4 0  9993","OBJECT_ID":"2023-028AH","COUNTRY_CODE":"US","MEAN_MOTION_DOT":"0.00006026","FILE":"3894751","OBJECT_NAME":"STARLINK-5835","ELEMENT_SET_NO":"999","BSTAR":"0.00005187800000","ECCENTRICITY":"0.00032800","NORAD_CAT_ID":"55772","EPHEMERIS_TYPE":"0","MEAN_ELEMENT_THEORY":"SGP4","DECAY_DATE":null,"GP_ID":"230839133","MEAN_MOTION_DDOT":"0.0000000000000","RCS_SIZE":"LARGE","PERIAPSIS":"356.941","SEMIMAJOR_AXIS":"6737.286","RA_OF_ASC_NODE":"2.2260","CLASSIFICATION_TYPE":"U","SITE":"AFWTR","INCLINATION":"69.9990","TIME_SYSTEM":"UTC","MEAN_ANOMALY":"96.6319","REV_AT_EPOCH":"921","OBJECT_TYPE":"PAYLOAD","LAUNCH_DATE":"2023-03-03"},{"RA_OF_ASC_NODE":"2.4081","SEMIMAJOR_AXIS":"6737.290","RCS_SIZE":"LARGE","PERIAPSIS":"356.568","MEAN_MOTION_DDOT":"0.0000000000000","DECAY_DATE":null,"GP_ID":"230840384","LAUNCH_DATE":"2023-03-03","OBJECT_TYPE":"PAYLOAD","REV_AT_EPOCH":"920","MEAN_ANOMALY":"92.1615","INCLINATION":"70.0008","TIME_SYSTEM":"UTC","CLASSIFICATION_TYPE":"U","SITE":"AFWTR","OBJECT_ID":"2023-028AJ","TLE_LINE1":"1 55773U 23028AJ  23117.10239843  .00006630  00000-0  56888-4 0  9990","TLE_LINE2":"2 55773  70.0008   2.4081 0003841 267.9141  92.1615 15.69910405  9200","REF_FRAME":"TEME","MEAN_MOTION":"15.69910405","CENTER_NAME":"EARTH","EPOCH":"2023-04-27T02:27:27.224352","PERIOD":"91.725","ARG_OF_PERICENTER":"267.9141","APOAPSIS":"361.743","MEAN_ELEMENT_THEORY":"SGP4","EPHEMERIS_TYPE":"0","BSTAR":"0.00005688800000","ELEMENT_SET_NO":"999","ECCENTRICITY":"0.00038410","NORAD_CAT_ID":"55773","OBJECT_NAME":"STARLINK-5833","MEAN_MOTION_DOT":"0.00006630","FILE":"3894751","COUNTRY_CODE":"US"},{"MEAN_MOTION":"15.69943893","CENTER_NAME":"EARTH","PERIOD":"91.723","ARG_OF_PERICENTER":"280.1448","EPOCH":"2023-04-27T02:27:09.245376","APOAPSIS":"361.238","OBJECT_ID":"2023-028AK","TLE_LINE1":"1 55774U 23028AK  23117.10219034  .00012035  00000-0  10163-3 0  9992","REF_FRAME":"TEME","TLE_LINE2":"2 55774  70.0011   2.4062 0003234 280.1448  79.9383 15.69943893  9209","OBJECT_NAME":"STARLINK-5812","FILE":"3894751","MEAN_MOTION_DOT":"0.00012035","COUNTRY_CODE":"US","MEAN_ELEMENT_THEORY":"SGP4","EPHEMERIS_TYPE":"0","NORAD_CAT_ID":"55774","ECCENTRICITY":"0.00032340","ELEMENT_SET_NO":"999","BSTAR":"0.00010163000000","PERIAPSIS":"356.881","RCS_SIZE":"LARGE","MEAN_MOTION_DDOT":"0.0000000000000","GP_ID":"230840133","DECAY_DATE":null,"RA_OF_ASC_NODE":"2.4062","SEMIMAJOR_AXIS":"6737.195","TIME_SYSTEM":"UTC","INCLINATION":"70.0011","SITE":"AFWTR","CLASSIFICATION_TYPE":"U","LAUNCH_DATE":"2023-03-03","OBJECT_TYPE":"PAYLOAD","REV_AT_EPOCH":"920","MEAN_ANOMALY":"79.9383"}];
